{
    "links": {
        "self": "http://www.neowsapp.com/rest/v1/neo/3558196?api_key=iIulBulltgU6a56xZRHN4H3l9WmuAYTsLGpBGhQ2"
    },
    "id": "3558196",
    "neo_reference_id": "3558196",
    "name": "(2011 EB)",
    "designation": "2011 EB",
    "nasa_jpl_url": "http://ssd.jpl.nasa.gov/sbdb.cgi?sstr=3558196",
    "absolute_magnitude_h": 26.9,
    "estimated_diameter": {
        "kilometers": {
            "estimated_diameter_min": 0.0110803882,
            "estimated_diameter_max": 0.0247765013
        },
        "meters": {
            "estimated_diameter_min": 11.0803882126,
            "estimated_diameter_max": 24.7765012606
        },
        "miles": {
            "estimated_diameter_min": 0.0068850319,
            "estimated_diameter_max": 0.0153953994
        },
        "feet": {
            "estimated_diameter_min": 36.3529808636,
            "estimated_diameter_max": 81.2877363957
        }
    },
    "is_potentially_hazardous_asteroid": false,
    "close_approach_data": [
        {
            "close_approach_date": "2011-02-26",
            "close_approach_date_full": "2011-Feb-26 11:29",
            "epoch_date_close_approach": 1298719740000,
            "relative_velocity": {
                "kilometers_per_second": "10.2720570066",
                "kilometers_per_hour": "36979.4052238874",
                "miles_per_hour": "22977.5643181427"
            },
            "miss_distance": {
                "astronomical": "0.0062840869",
                "lunar": "2.4445098041",
                "kilometers": "940086.015134903",
                "miles": "584142.3627635414"
            },
            "orbiting_body": "Earth"
        },
        {
            "close_approach_date": "2011-02-26",
            "close_approach_date_full": "2011-Feb-26 13:35",
            "epoch_date_close_approach": 1298727300000,
            "relative_velocity": {
                "kilometers_per_second": "11.18649255",
                "kilometers_per_hour": "40271.3731800137",
                "miles_per_hour": "25023.0651851035"
            },
            "miss_distance": {
                "astronomical": "0.0085016341",
                "lunar": "3.3071356649",
                "kilometers": "1271826.352879367",
                "miles": "790276.2500825846"
            },
            "orbiting_body": "Moon"
        }
    ],
    "orbital_data": {
        "orbit_id": "10",
        "orbit_determination_date": "2017-04-06 08:54:20",
        "first_observation_date": "2011-03-01",
        "last_observation_date": "2011-03-10",
        "data_arc_in_days": 9,
        "observations_used": 39,
        "orbit_uncertainty": "7",
        "minimum_orbit_intersection": ".00180773",
        "jupiter_tisserand_invariant": "3.332",
        "epoch_osculation": "2459000.5",
        "eccentricity": ".5971408295244177",
        "semi_major_axis": "2.294952470524752",
        "inclination": "2.506604371038399",
        "ascending_node_longitude": "160.2586415766036",
        "orbital_period": "1269.869142790623",
        "perihelion_distance": ".9245426485564897",
        "perihelion_argument": "322.8547073764475",
        "aphelion_distance": "3.665362292493014",
        "perihelion_time": "2459407.522667968383",
        "mean_anomaly": "244.6116064001584",
        "mean_motion": ".2834937773264384",
        "equinox": "J2000",
        "orbit_class": {
            "orbit_class_type": "APO",
            "orbit_class_description": "Near-Earth asteroid orbits which cross the Earth’s orbit similar to that of 1862 Apollo",
            "orbit_class_range": "a (semi-major axis) > 1.0 AU; q (perihelion) < 1.017 AU"
        }
    },
    "is_sentry_object": false
}